OBJECT_NAME,OBJECT_ID,EPOCH,MEAN_MOTION,ECCENTRICITY,INCLINATION,RA_OF_ASC_NODE,ARG_OF_PERICENTER,MEAN_ANOMALY,EPHEMERIS_TYPE,CLASSIFICATION_TYPE,NORAD_CAT_ID,ELEMENT_SET_NO,REV_AT_EPOCH,BSTAR,MEAN_MOTION_DOT,MEAN_MOTION_DDOT
STARLINK-37892,2026-131H,2026-06-25T20:00:01.999008,15.80731745,.0001614,97.2838,197.6258,87.3920,146.5310,0,U,69485,999,340,.47298E-3,.91058E-3,0
STARLINK-37893,2026-131J,2026-06-25T20:00:01.999008,15.80794009,.0001042,97.2841,197.6276,106.7912,131.3690,0,U,69486,999,348,.97993E-4,.18649E-3,0
STARLINK-37842,2026-131K,2026-06-25T20:00:01.999008,15.80795313,.0001659,97.2841,197.6295,99.0962,143.3434,0,U,69487,999,340,.31589E-5,.463E-5,0
STARLINK-37449,2026-131L,2026-06-25T20:00:01.999008,15.80739206,.0000722,97.2842,197.6306,73.1904,173.4522,0,U,69488,999,349,.10711E-2,.209285E-2,0
STARLINK-37831,2026-131M,2026-06-25T20:00:01.999008,15.80774843,.0001073,97.2841,197.6323,103.2609,147.7258,0,U,69489,999,205,.21102E-3,.40388E-3,0
STARLINK-37879,2026-131N,2026-06-25T20:00:01.999008,15.80773446,.0001201,97.2842,197.6347,87.9010,167.3633,0,U,69490,999,340,.17474E-3,.33392E-3,0
STARLINK-37856,2026-131P,2026-06-25T20:00:01.999008,15.80830193,.0001415,97.2843,197.6154,88.9369,122.7806,0,U,69491,999,346,-.19503E-3,-.37364E-3,0
STARLINK-37568,2026-131Q,2026-06-25T20:00:01.999008,15.80785806,.0001305,97.2840,197.6377,99.4671,164.3314,0,U,69492,999,349,.10578E-3,.20138E-3,0
STARLINK-37855,2026-131R,2026-06-25T20:00:01.999008,15.80736319,.000146,97.2845,197.6229,106.5772,122.2508,0,U,69493,999,346,.58807E-3,.113566E-2,0
STARLINK-37854,2026-131S,2026-06-25T20:00:01.999008,15.80776817,.0001168,97.2843,197.6199,102.5686,119.5833,0,U,69494,999,346,.63297E-4,.11977E-3,0
STARLINK-37789,2026-131T,2026-06-25T20:00:01.999008,15.80812602,.000113,97.2840,197.6434,113.7886,162.8295,0,U,69495,999,348,-.49134E-3,-.93242E-3,0
STARLINK-37839,2026-131U,2026-06-25T20:00:01.999008,15.80751502,.0001482,97.2845,197.6261,72.3644,163.6988,0,U,69496,999,346,.47948E-3,.92408E-3,0
STARLINK-37798,2026-131V,2026-06-25T20:00:01.999008,15.80788144,.0001633,97.2840,197.6451,100.5646,180.3318,0,U,69497,999,346,.96074E-4,.18276E-3,0
STARLINK-37853,2026-131W,2026-06-25T20:00:01.999008,15.80792192,.0001005,97.2831,197.6543,91.3508,210.9077,0,U,69498,999,346,.21388E-3,.40974E-3,0
STARLINK-37849,2026-131X,2026-06-25T20:00:01.999008,15.80798558,.0001387,97.2833,197.6521,101.1104,196.8776,0,U,69499,999,348,.80795E-4,.15349E-3,0
STARLINK-37835,2026-131Y,2026-06-25T20:00:01.999008,15.80770819,.0001526,97.2835,197.6485,83.3599,206.0838,0,U,69500,999,238,.27598E-3,.52935E-3,0
STARLINK-37843,2026-131Z,2026-06-25T20:00:01.999008,15.80764163,.0001362,97.2834,197.6508,102.6497,191.0691,0,U,69501,999,346,.42803E-3,.82428E-3,0
2026-132A,2026-132A,2026-06-25T18:22:57.296352,14.99058680,.0013127,97.6889,240.3285,238.0312,121.9636,0,U,69502,999,206,.97697E-4,.1128E-4,0
2026-132B,2026-132B,2026-06-25T18:21:46.692864,14.99144582,.0013028,97.6920,240.3350,240.1923,119.8005,0,U,69503,999,206,.7491E-4,.853E-5,0
BRO-22,2026-132C,2026-06-25T18:13:34.599072,14.99766547,.0014664,97.6855,240.3298,252.1907,107.7717,0,U,69504,999,206,.60056E-4,.684E-5,0
2026-132D,2026-132D,2026-06-25T09:39:15.557760,15.04379607,.0016249,97.6876,240.0415,258.5580,101.3821,0,U,69505,999,201,.26929E-3,.3706E-4,0
VERTECS,2026-132E,2026-06-25T17:58:48.351072,15.00911434,.0013247,97.6886,240.3512,274.2812,85.6898,0,U,69506,999,205,.22247E-3,.2777E-4,0
2026-132F,2026-132F,2026-06-24T03:25:09.238656,15.02465947,.00132793,97.6882,238.7612,269.1530,90.8173,0,U,69507,999,181,.45735681E-4,.546E-5,0
STARLINK-37536,2026-133A,2026-06-25T20:00:01.999008,15.80814165,.0001079,53.1592,278.7795,73.4687,306.7387,0,U,69508,999,336,.44378E-3,.87541E-3,0
STARLINK-37341,2026-133B,2026-06-25T20:00:01.999008,15.80777495,.0001675,53.1595,278.7504,89.3886,305.0871,0,U,69509,999,336,.78354E-3,.156085E-2,0
STARLINK-36536,2026-133C,2026-06-25T20:00:01.999008,15.80813410,.000121,53.1593,278.7190,62.8358,346.7333,0,U,69510,999,330,.54532E-3,.107985E-2,0
STARLINK-37420,2026-133D,2026-06-25T20:00:01.999008,15.80821548,.0001106,53.1593,278.6773,79.1922,349.9714,0,U,69511,999,325,.37645E-3,.74063E-3,0
STARLINK-37511,2026-133E,2026-06-25T20:00:01.999008,15.81333348,.0000536,53.1594,278.6944,65.2786,356.0951,0,U,69512,999,325,-.34444E-2,-.645592E-2,0
STARLINK-37552,2026-133F,2026-06-25T20:00:01.999008,15.80862987,.0001263,53.1590,278.6471,82.5702,1.7561,0,U,69513,999,325,.13177E-3,.25373E-3,0
STARLINK-37607,2026-133G,2026-06-25T20:00:01.999008,15.80830836,.0000656,53.1592,278.6324,69.2104,21.8618,0,U,69514,999,325,.5626E-3,.111566E-2,0
