STARLINK-37892          
1 69485U 26131H   26176.83335647  .00091058  00000+0  47298-3 0  9991
2 69485  97.2838 197.6258 0001614  87.3920 146.5310 15.80731745  3408
STARLINK-37893          
1 69486U 26131J   26176.83335647  .00018649  00000+0  97993-4 0  9995
2 69486  97.2841 197.6276 0001042 106.7912 131.3690 15.80794009  3488
STARLINK-37842          
1 69487U 26131K   26176.83335647  .00000463  00000+0  31589-5 0  9991
2 69487  97.2841 197.6295 0001659  99.0962 143.3434 15.80795313  3403
STARLINK-37449          
1 69488U 26131L   26176.83335647  .00209285  00000+0  10711-2 0  9996
2 69488  97.2842 197.6306 0000722  73.1904 173.4522 15.80739206  3497
STARLINK-37831          
1 69489U 26131M   26176.83335647  .00040388  00000+0  21102-3 0  9991
2 69489  97.2841 197.6323 0001073 103.2609 147.7258 15.80774843  2050
STARLINK-37879          
1 69490U 26131N   26176.83335647  .00033392  00000+0  17474-3 0  9997
2 69490  97.2842 197.6347 0001201  87.9010 167.3633 15.80773446  3409
STARLINK-37856          
1 69491U 26131P   26176.83335647 -.00037364  00000+0 -19503-3 0  9998
2 69491  97.2843 197.6154 0001415  88.9369 122.7806 15.80830193  3468
STARLINK-37568          
1 69492U 26131Q   26176.83335647  .00020138  00000+0  10578-3 0  9991
2 69492  97.2840 197.6377 0001305  99.4671 164.3314 15.80785806  3493
STARLINK-37855          
1 69493U 26131R   26176.83335647  .00113566  00000+0  58807-3 0  9997
2 69493  97.2845 197.6229 0001460 106.5772 122.2508 15.80736319  3469
STARLINK-37854          
1 69494U 26131S   26176.83335647  .00011977  00000+0  63297-4 0  9991
2 69494  97.2843 197.6199 0001168 102.5686 119.5833 15.80776817  3466
STARLINK-37789          
1 69495U 26131T   26176.83335647 -.00093242  00000+0 -49134-3 0  9992
2 69495  97.2840 197.6434 0001130 113.7886 162.8295 15.80812602  3489
STARLINK-37839          
1 69496U 26131U   26176.83335647  .00092408  00000+0  47948-3 0  9995
2 69496  97.2845 197.6261 0001482  72.3644 163.6988 15.80751502  3462
STARLINK-37798          
1 69497U 26131V   26176.83335647  .00018276  00000+0  96074-4 0  9992
2 69497  97.2840 197.6451 0001633 100.5646 180.3318 15.80788144  3468
STARLINK-37853          
1 69498U 26131W   26176.83335647  .00040974  00000+0  21388-3 0  9998
2 69498  97.2831 197.6543 0001005  91.3508 210.9077 15.80792192  3468
STARLINK-37849          
1 69499U 26131X   26176.83335647  .00015349  00000+0  80795-4 0  9995
2 69499  97.2833 197.6521 0001387 101.1104 196.8776 15.80798558  3484
STARLINK-37835          
1 69500U 26131Y   26176.83335647  .00052935  00000+0  27598-3 0  9991
2 69500  97.2835 197.6485 0001526  83.3599 206.0838 15.80770819  2383
STARLINK-37843          
1 69501U 26131Z   26176.83335647  .00082428  00000+0  42803-3 0  9998
2 69501  97.2834 197.6508 0001362 102.6497 191.0691 15.80764163  3464
2026-132A               
1 69502U 26132A   26176.76594093  .00001128  00000+0  97697-4 0  9994
2 69502  97.6889 240.3285 0013127 238.0312 121.9636 14.99058680  2064
2026-132B               
1 69503U 26132B   26176.76512376  .00000853  00000+0  74910-4 0  9996
2 69503  97.6920 240.3350 0013028 240.1923 119.8005 14.99144582  2069
BRO-22                  
1 69504U 26132C   26176.75942823  .00000684  00000+0  60056-4 0  9998
2 69504  97.6855 240.3298 0014664 252.1907 107.7717 14.99766547  2067
2026-132D               
1 69505U 26132D   26176.40226340  .00003706  00000+0  26929-3 0  9998
2 69505  97.6876 240.0415 0016249 258.5580 101.3821 15.04379607  2012
VERTECS                 
1 69506U 26132E   26176.74917073  .00002777  00000+0  22247-3 0  9992
2 69506  97.6886 240.3512 0013247 274.2812  85.6898 15.00911434  2051
2026-132F               
1 69507U 26132F   26175.14246804  .00000546  00000+0  45736-4 0  9994
2 69507  97.6882 238.7612 0013279 269.1530  90.8173 15.02465947  1817
STARLINK-37536          
1 69508U 26133A   26176.83335647  .00087541  00000+0  44378-3 0  9997
2 69508  53.1592 278.7795 0001079  73.4687 306.7387 15.80814165  3367
STARLINK-37341          
1 69509U 26133B   26176.83335647  .00156085  00000+0  78354-3 0  9999
2 69509  53.1595 278.7504 0001675  89.3886 305.0871 15.80777495  3362
STARLINK-36536          
1 69510U 26133C   26176.83335647  .00107985  00000+0  54532-3 0  9998
2 69510  53.1593 278.7190 0001210  62.8358 346.7333 15.80813410  3305
STARLINK-37420          
1 69511U 26133D   26176.83335647  .00074063  00000+0  37645-3 0  9995
2 69511  53.1593 278.6773 0001106  79.1922 349.9714 15.80821548  3257
STARLINK-37511          
1 69512U 26133E   26176.83335647 -.00645592  00000+0 -34444-2 0  9992
2 69512  53.1594 278.6944 0000536  65.2786 356.0951 15.81333348  3258
STARLINK-37552          
1 69513U 26133F   26176.83335647  .00025373  00000+0  13177-3 0  9991
2 69513  53.1590 278.6471 0001263  82.5702   1.7561 15.80862987  3254
STARLINK-37607          
1 69514U 26133G   26176.83335647  .00111566  00000+0  56260-3 0  9992
2 69514  53.1592 278.6324 0000656  69.2104  21.8618 15.80830836  3251
